GLOBALSTAR M024         
1 25883U 99043A   25086.53579655 -.00000083  00000+0 -65528-3 0  9998
2 25883  51.9997 204.8562 0000762 333.4896 109.8714 11.10162069105795
GLOBALSTAR M027         
1 25884U 99043B   25086.49173330 -.00000048  00000+0  56825-3 0  9994
2 25884  52.0203 280.6262 0020935 217.7788 142.1536 11.04371644132218
GLOBALSTAR M054         
1 25885U 99043C   25086.25105204 -.00000076  00000+0 -11617-3 0  9996
2 25885  52.0143  62.2064 0006192  33.7011 339.1758 11.39211475109716
GLOBALSTAR M053         
1 25886U 99043D   25086.69158786 -.00000057  00000+0  33253-3 0  9996
2 25886  52.0025   3.7269 0003098 311.4463  77.4093 11.27663766110393
GLOBALSTAR M058         
1 25907U 99049A   25086.38133308 -.00000111  00000+0 -36364-3 0  9993
2 25907  51.9960 327.6199 0002721 104.7035 255.4101 11.93195847531773
GLOBALSTAR M050         
1 25908U 99049B   25086.45221086 -.00000038  00000+0  56530-3 0  9997
2 25908  52.0024 341.2119 0008469 226.4797 305.0226 12.07451239138312
GLOBALSTAR M033         
1 25909U 99049C   25086.52247811 -.00000105  00000+0 -12451-3 0  9990
2 25909  51.9901 218.4891 0014219  96.6482 263.5984 12.20287838525771
GLOBALSTAR M055         
1 25910U 99049D   25086.71241337 -.00000084  00000+0  83508-4 0  9997
2 25910  52.0007 232.6706 0006312 326.4986  33.5466 12.29424186158481
